[{"OBJECT_NAME":"ONEWEB-0191","OBJECT_ID":"2021-031AF","EPOCH":"2026-03-09T16:06:00.624384","MEAN_MOTION":13.14502346,"ECCENTRICITY":0.00015376,"INCLINATION":87.899,"RA_OF_ASC_NODE":309.5517,"ARG_OF_PERICENTER":77.494,"MEAN_ANOMALY":282.6362,"EPHEMERIS_TYPE":0,"CLASSIFICATION_TYPE":"U","NORAD_CAT_ID":48239,"ELEMENT_SET_NO":999,"REV_AT_EPOCH":23509,"BSTAR":0.00011721762,"MEAN_MOTION_DOT":5.6e-7,"MEAN_MOTION_DDOT":0},{"OBJECT_NAME":"DELTA 1 DEB","OBJECT_ID":"1975-052BK","EPOCH":"2026-03-09T16:47:13.832160","MEAN_MOTION":12.58290338,"ECCENTRICITY":0.0498286,"INCLINATION":99.745,"RA_OF_ASC_NODE":131.5769,"ARG_OF_PERICENTER":257.6058,"MEAN_ANOMALY":232.7064,"EPHEMERIS_TYPE":0,"CLASSIFICATION_TYPE":"U","NORAD_CAT_ID":21341,"ELEMENT_SET_NO":999,"REV_AT_EPOCH":59731,"BSTAR":0.00062054759,"MEAN_MOTION_DOT":1.31e-6,"MEAN_MOTION_DDOT":0}]
